NORAD_CAT_ID,OBJECT_NAME,OBJECT_TYPE,EPOCH,MEAN_MOTION,ECCENTRICITY,INCLINATION,RA_OF_ASC_NODE,ARG_OF_PERICENTER,MEAN_ANOMALY,BSTAR,MEAN_MOTION_DOT,MEAN_MOTION_DDOT,TLE_LINE0,TLE_LINE1,TLE_LINE2,SEMIMAJOR_AXIS,PERIOD,APOGEE,PERIGEE,DECAYED
54198.0,STARLINK-5246,PAYLOAD,2023-06-13 10:07:37,15.08835343,0.0001026,53.2157,164.3406,85.2776,274.8333,-1.4711e-05,-5.22e-06,0.0,0 STARLINK-5246,1 54198U 22141AT  23164.42196559 -.00000522  00000-0 -14711-4 0  9993,2 54198  53.2157 164.3406 0001026  85.2776 274.8333 15.08835343 35222,6917.895,95.438,540.469,539.05,0.0
54198.0,STARLINK-5246,PAYLOAD,2023-06-14 06:47:38,15.08839686,0.0001034,53.2159,160.4756,82.9679,277.1431,3.2281e-05,2.26e-06,0.0,0 STARLINK-5246,1 54198U 22141AT  23165.28308286  .00000226  00000-0  32281-4 0  9991,2 54198  53.2159 160.4756 0001034  82.9679 277.1431 15.08839686 35122,6917.881,95.438,540.462,539.031,0.0
54198.0,STARLINK-5246,PAYLOAD,2023-06-14 16:19:57,15.08835335,0.0001029,53.2158,158.6917,80.578,279.5328,3.4644e-05,2.64e-06,0.0,0 STARLINK-5246,1 54198U 22141AT  23165.68052630  .00000264  00000-0  34644-4 0  9991,2 54198  53.2158 158.6917 0001029  80.5780 279.5328 15.08835335 35410,6917.895,95.438,540.471,539.048,0.0
54198.0,STARLINK-5246,PAYLOAD,2023-06-15 06:38:25,15.08834299,0.0001067,53.2159,156.0155,86.1681,273.9433,3.3086e-05,2.39e-06,0.0,0 STARLINK-5246,1 54198U 22141AT  23166.27668887  .00000239  00000-0  33086-4 0  9995,2 54198  53.2159 156.0155 0001067  86.1681 273.9433 15.08834299 35278,6917.898,95.438,540.501,539.025,0.0
54198.0,STARLINK-5246,PAYLOAD,2023-06-15 16:10:44,15.08835091,0.000107,53.216,154.2314,85.855,274.2564,2.9755e-05,1.86e-06,0.0,0 STARLINK-5246,1 54198U 22141AT  23166.67412980  .00000186  00000-0  29755-4 0  9999,2 54198  53.2160 154.2314 0001070  85.8550 274.2564 15.08835091 35339,6917.895,95.438,540.501,539.02,0.0
54198.0,STARLINK-5246,PAYLOAD,2023-06-16 00:07:40,15.08836553,0.0001078,53.2159,152.7446,86.4201,273.6914,1.8959e-05,1.4e-07,0.0,0 STARLINK-5246,1 54198U 22141AT  23167.00533010  .00000014  00000-0  18959-4 0  9999,2 54198  53.2159 152.7446 0001078  86.4201 273.6914 15.08836553 35611,6917.891,95.438,540.502,539.01,0.0
54198.0,STARLINK-5246,PAYLOAD,2023-06-16 08:04:35,15.08840298,0.0001099,53.2159,151.258,87.1479,272.9639,4.8042e-05,4.77e-06,0.0,0 STARLINK-5246,1 54198U 22141AT  23167.33652729  .00000477  00000-0  48042-4 0  9993,2 54198  53.2159 151.2580 0001099  87.1479 272.9639 15.08840298 35439,6917.879,95.438,540.505,538.984,0.0
54198.0,STARLINK-5246,PAYLOAD,2023-06-16 16:01:31,15.08837691,0.0001105,53.2162,149.7713,89.2526,270.8593,4.0672e-05,3.6e-06,0.0,0 STARLINK-5246,1 54198U 22141AT  23167.66772942  .00000360  00000-0  40672-4 0  9991,2 54198  53.2162 149.7713 0001105  89.2526 270.8593 15.08837691 35481,6917.887,95.438,540.517,538.988,0.0
54198.0,STARLINK-5246,PAYLOAD,2023-06-17 07:55:23,15.08839336,0.0001123,53.216,146.7973,89.8926,270.2195,5.9332e-05,6.57e-06,0.0,0 STARLINK-5246,1 54198U 22141AT  23168.33012897  .00000657  00000-0  59332-4 0  9994,2 54198  53.2160 146.7973 0001123  89.8926 270.2195 15.08839336 35811,6917.882,95.438,540.524,538.971,0.0
54198.0,STARLINK-5246,PAYLOAD,2023-06-17 15:52:19,15.08832689,0.0001098,53.2157,145.3096,89.2406,270.8712,-3.1336e-06,-3.38e-06,0.0,0 STARLINK-5246,1 54198U 22141AT  23168.66133557 -.00000338  00000-0 -31336-5 0  9990,2 54198  53.2157 145.3096 0001098  89.2406 270.8712 15.08832689 35866,6917.903,95.438,540.527,539.008,0.0
54198.0,STARLINK-5246,PAYLOAD,2023-06-18 04:35:24,15.08834629,0.0001116,53.2157,142.9303,90.2686,269.8434,1.5294e-05,-4.4e-07,0.0,0 STARLINK-5246,1 54198U 22141AT  23169.19125574 -.00000044  00000-0  15294-4 0  9996,2 54198  53.2157 142.9303 0001116  90.2686 269.8434 15.08834629 35712,6917.897,95.438,540.534,538.99,0.0
54198.0,STARLINK-5246,PAYLOAD,2023-06-18 15:43:06,15.08840855,0.0001148,53.2165,140.8481,90.3837,269.7287,5.6127e-05,6.06e-06,0.0,0 STARLINK-5246,1 54198U 22141AT  23169.65493074  .00000606  00000-0  56127-4 0  9993,2 54198  53.2165 140.8481 0001148  90.3837 269.7287 15.08840855 36016,6917.878,95.438,540.537,538.949,0.0
54198.0,STARLINK-5246,PAYLOAD,2023-06-19 07:36:56,15.08850524,0.0001131,53.2162,137.874,92.9267,267.1855,0.00011363,1.522e-05,0.0,0 STARLINK-5246,1 54198U 22141AT  23170.31732107  .00001522  00000-0  11363-3 0  9991,2 54198  53.2162 137.8740 0001131  92.9267 267.1855 15.08850524 36112,6917.848,95.437,540.496,538.931,0.0
54198.0,STARLINK-5246,PAYLOAD,2023-06-19 15:33:52,15.08842684,0.0001152,53.2164,136.3861,95.135,264.9774,7.6438e-05,9.29e-06,0.0,0 STARLINK-5246,1 54198U 22141AT  23170.64852598  .00000929  00000-0  76438-4 0  9999,2 54198  53.2164 136.3861 0001152  95.1350 264.9774 15.08842684 36161,6917.872,95.437,540.534,538.94,0.0
54198.0,STARLINK-5246,PAYLOAD,2023-06-20 07:27:44,15.08834327,0.0001176,53.2161,133.4135,91.5693,268.5434,1.2537e-05,-8.8e-07,0.0,0 STARLINK-5246,1 54198U 22141AT  23171.31093426 -.00000088  00000-0  12537-4 0  9998,2 54198  53.2161 133.4135 0001176  91.5693 268.5434 15.08834327 36265,6917.898,95.438,540.576,538.949,0.0
54198.0,STARLINK-5246,PAYLOAD,2023-06-21 02:32:22,15.08847087,0.0001273,53.2162,129.8448,94.3982,265.7156,-0.00015544,-2.761e-05,0.0,0 STARLINK-5246,1 54198U 22141AT  23172.10581198 -.00002761  00000-0 -15544-3 0  9995,2 54198  53.2162 129.8448 0001273  94.3982 265.7156 15.08847087 36382,6917.859,95.437,540.604,538.843,0.0
54198.0,STARLINK-5246,PAYLOAD,2023-06-21 04:07:45,15.08842629,0.0001177,53.2165,129.5498,87.9728,272.1399,-5.6234e-05,-1.183e-05,0.0,0 STARLINK-5246,1 54198U 22141AT  23172.17205262 -.00001183  00000-0 -56234-4 0  9996,2 54198  53.2165 129.5498 0001177  87.9728 272.1399 15.08842629 36160,6917.872,95.437,540.552,538.923,0.0
54198.0,STARLINK-5246,PAYLOAD,2023-06-21 13:40:04,15.08840531,0.0001173,53.2163,127.7648,85.3047,274.8079,-6.6181e-05,-1.341e-05,0.0,0 STARLINK-5246,1 54198U 22141AT  23172.56949334 -.00001341  00000-0 -66181-4 0  9992,2 54198  53.2163 127.7648 0001173  85.3047 274.8079 15.08840531 36228,6917.879,95.438,540.555,538.932,0.0
54198.0,STARLINK-5246,PAYLOAD,2023-06-22 02:23:09,15.08832678,7.22e-05,53.2161,125.3876,82.203,277.9044,0.00011707,1.576e-05,0.0,0 STARLINK-5246,1 54198U 22141AT  23173.09941356  .00001576  00000-0  11707-3 0  9998,2 54198  53.2161 125.3876 0000722  82.2030 277.9044 15.08832678 36533,6917.903,95.438,540.267,539.268,0.0
54198.0,STARLINK-5246,PAYLOAD,2023-06-22 05:33:55,15.08847398,0.0001116,53.2164,124.7925,93.6353,266.4767,-1.7798e-06,-3.16e-06,0.0,0 STARLINK-5246,1 54198U 22141AT  23173.23189009 -.00000316  00000-0 -17798-5 0  9994,2 54198  53.2164 124.7925 0001116  93.6353 266.4767 15.08847398 36558,6917.858,95.437,540.495,538.951,0.0
54198.0,STARLINK-5246,PAYLOAD,2023-06-22 13:30:51,15.08840617,0.0001104,53.2166,123.3054,91.6603,268.4515,1.369e-05,-7e-07,0.0,0 STARLINK-5246,1 54198U 22141AT  23173.56309367 -.00000070  00000-0  13690-4 0  9993,2 54198  53.2166 123.3054 0001104  91.6603 268.4515 15.08840617 36607,6917.879,95.438,540.507,538.98,0.0
54198.0,STARLINK-5246,PAYLOAD,2023-06-23 05:24:42,15.088232,0.0001259,53.2165,120.3321,97.1955,262.918,0.00032396,4.869e-05,0.0,0 STARLINK-5246,1 54198U 22141AT  23174.22549693  .00004869  00000-0  32396-3 0  9997,2 54198  53.2165 120.3321 0001259  97.1955 262.9180 15.08823200 36709,6917.932,95.439,540.668,538.926,0.0
54198.0,STARLINK-5246,PAYLOAD,2023-06-24 02:04:43,15.08843773,0.000116,53.2163,116.4658,100.5961,259.5161,4.8564e-05,4.85e-06,0.0,0 STARLINK-5246,1 54198U 22141AT  23175.08661407  .00000485  00000-0  48564-4 0  9995,2 54198  53.2163 116.4658 0001160 100.5961 259.5161 15.08843773 36835,6917.869,95.437,540.536,538.931,0.0
54198.0,STARLINK-5246,PAYLOAD,2023-06-25 03:30:53,15.08843554,0.0001225,53.2164,111.7081,94.2694,265.8438,4.5192e-05,4.32e-06,0.0,0 STARLINK-5246,1 54198U 22141AT  23176.14645591  .00000432  00000-0  45192-4 0  9995,2 54198  53.2164 111.7081 0001225  94.2694 265.8438 15.08843554 36999,6917.87,95.437,540.582,538.887,0.0
54198.0,STARLINK-5246,PAYLOAD,2023-06-26 04:57:03,15.08848639,0.0001241,53.2167,106.9496,95.9803,264.1331,4.6396e-05,4.51e-06,0.0,0 STARLINK-5246,1 54198U 22141AT  23177.20629289  .00000451  00000-0  46396-4 0  9997,2 54198  53.2167 106.9496 0001241  95.9803 264.1331 15.08848639 37158,6917.854,95.437,540.577,538.86,0.0
54198.0,STARLINK-5246,PAYLOAD,2023-06-26 14:29:22,15.08842427,0.0001298,53.2152,105.1654,97.631,262.4829,-1.8991e-05,-5.9e-06,0.0,0 STARLINK-5246,1 54198U 22141AT  23177.60373754 -.00000590  00000-0 -18991-4 0  9990,2 54198  53.2152 105.1654 0001298  97.6310 262.4829 15.08842427 37212,6917.873,95.437,540.636,538.84,0.0
54198.0,STARLINK-5246,PAYLOAD,2023-06-26 19:15:32,15.08834733,0.0001648,53.2153,104.274,89.3785,270.7395,4.1586e-05,3.74e-06,0.0,0 STARLINK-5246,1 54198U 22141AT  23177.80246294  .00000374  00000-0  41586-4 0  9994,2 54198  53.2153 104.2740 0001648  89.3785 270.7395 15.08834733 37246,6917.896,95.438,540.902,538.621,0.0
54198.0,STARLINK-5246,PAYLOAD,2023-06-28 04:38:38,15.08844634,0.0001206,53.2168,98.0297,93.0795,267.0335,6.6352e-05,7.68e-06,0.0,0 STARLINK-5246,1 54198U 22141AT  23179.19349578  .00000768  00000-0  66352-4 0  9992,2 54198  53.2168  98.0297 0001206  93.0795 267.0335 15.08844634 37459,6917.866,95.437,540.566,538.897,0.0
54198.0,STARLINK-5246,PAYLOAD,2023-06-28 23:43:16,15.08831926,0.0001204,53.2172,94.4593,103.6659,256.4468,2.0557e-05,3.9e-07,0.0,0 STARLINK-5246,1 54198U 22141AT  23179.98838633  .00000039  00000-0  20557-4 0  9992,2 54198  53.2172  94.4593 0001204 103.6659 256.4468 15.08831926 37570,6917.905,95.438,540.603,538.937,0.0
54198.0,STARLINK-5246,PAYLOAD,2023-07-01 01:00:14,15.08836368,0.0001132,53.2168,85.2444,96.1805,263.9316,1.6267e-05,-2.9e-07,0.0,0 STARLINK-5246,1 54198U 22141AT  23182.04183007 -.00000029  00000-0  16267-4 0  9994,2 54198  53.2168  85.2444 0001132  96.1805 263.9316 15.08836368 37881,6917.891,95.438,540.54,538.973,0.0
